[{"OBJECT_NAME":"STARLINK-5456","OBJECT_ID":"2023-021AR","EPOCH":"2026-03-09T14:20:41.522784","MEAN_MOTION":14.98329684,"ECCENTRICITY":0.0002996,"INCLINATION":70.0012,"RA_OF_ASC_NODE":164.5749,"ARG_OF_PERICENTER":263.0991,"MEAN_ANOMALY":96.9827,"EPHEMERIS_TYPE":0,"CLASSIFICATION_TYPE":"U","NORAD_CAT_ID":55667,"ELEMENT_SET_NO":999,"REV_AT_EPOCH":16927,"BSTAR":-7.6718e-5,"MEAN_MOTION_DOT":-1.008e-5,"MEAN_MOTION_DDOT":0},{"OBJECT_NAME":"PE2_FLT2  (TYVAK-0262)","OBJECT_ID":"2024-043G","EPOCH":"2026-03-09T22:11:35.814912","MEAN_MOTION":14.96566721,"ECCENTRICITY":0.00068512,"INCLINATION":97.8241,"RA_OF_ASC_NODE":199.4452,"ARG_OF_PERICENTER":28.1235,"MEAN_ANOMALY":332.0355,"EPHEMERIS_TYPE":0,"CLASSIFICATION_TYPE":"U","NORAD_CAT_ID":59104,"ELEMENT_SET_NO":999,"REV_AT_EPOCH":10980,"BSTAR":0.00036572059,"MEAN_MOTION_DOT":4.105e-5,"MEAN_MOTION_DDOT":0}]
