STARLINK-5456           
1 55667U 23021AR  26068.59770281 -.00001008  00000+0 -76718-4 0  9991
2 55667  70.0012 164.5749 0002996 263.0991  96.9827 14.98329684169273
PE2_FLT2  (TYVAK-0262)  
1 59104U 24043G   26068.92472008  .00004105  00000+0  36572-3 0  9991
2 59104  97.8241 199.4452 0006851  28.1235 332.0355 14.96566721109803
